0 NSS K (INTELSAT K)
1 21989U 92032A   13281.89827999 -.00000049  00000-0  10000-3 0  9304
2 21989 010.0486 050.7160 0082323 239.7113 119.4898 00.97180088 87458
0 NSS K (INTELSAT K)
1 21989U 92032A   13283.95622225 -.00000077  00000-0  10000-3 0  9310
2 21989 010.0525 050.6931 0082428 239.7478 119.4528 00.97180639 87471
0 NSS K (INTELSAT K)
1 21989U 92032A   13287.04310353 -.00000144  00000-0  10000-3 0  9326
2 21989 010.0583 050.6579 0082505 239.8160 119.3828 00.97181850 87500
0 NSS K (INTELSAT K)
1 21989U 92032A   13289.10096342 -.00000164  00000-0  10000-3 0  9337
2 21989 010.0622 050.6343 0082500 239.8508 119.3313 00.97182148 87526
0 NSS K (INTELSAT K)
1 21989U 92032A   13293.21666840 -.00000120  00000-0  10000-3 0  9343
2 21989 010.0698 050.5880 0082475 239.9491 119.1940 00.97181186 87566
0 NSS K (INTELSAT K)
1 21989U 92032A   13295.27457933 -.00000082  00000-0  10000-3 0  9350
2 21989 010.0738 050.5643 0082687 239.9360 119.2029 00.97180584 87580
